{"type": "FeatureCollection", "features": [ {"type": "Feature", "properties": {"norad_id": 33841, "name": "COSMOS 2251 DEB", "group": "cosmos-2251-debris", "lat": -4.647746141591808, "lon": 92.92635861479496, "alt_km": 783.1298886823224, "timestamp": "2025-12-16T05:49:09.606105+00:00", "meta": {"OBJECT_NAME": "COSMOS 2251 DEB", "OBJECT_ID": "1993-036CJ", "EPOCH": "2025-12-15T22:40:15.963744", "MEAN_MOTION": 14.37865459, "ECCENTRICITY": 0.00206761, "INCLINATION": 74.0377, "RA_OF_ASC_NODE": 272.1412, "ARG_OF_PERICENTER": 351.9906, "MEAN_ANOMALY": 91.6743, "EPHEMERIS_TYPE": 0, "CLASSIFICATION_TYPE": "U", "NORAD_CAT_ID": 33841, "ELEMENT_SET_NO": 999, "REV_AT_EPOCH": 88160, "BSTAR": 0.00021925204, "MEAN_MOTION_DOT": 6.37e-06, "MEAN_MOTION_DDOT": 0}, "tle": {"line1": "1 33841U 93036CJ  25349.94462921  .00000637  00000+0  21925-3 0  9997", "line2": "2 33841  74.0377 272.1412 0020676 351.9906  91.6743 14.37865459881607"}}, "geometry": {"type": "Point", "coordinates": [92.92635861479496, -4.647746141591808]}}, {"type": "Feature", "properties": {"norad_id": 33842, "name": "COSMOS 2251 DEB", "group": "cosmos-2251-debris", "lat": 37.674068352801655, "lon": 20.377959822955884, "alt_km": 780.2394892596376, "timestamp": "2025-12-16T05:49:09.606115+00:00", "meta": {"OBJECT_NAME": "COSMOS 2251 DEB", "OBJECT_ID": "1993-036CK", "EPOCH": "2025-12-15T09:11:54.379392", "MEAN_MOTION": 14.42702894, "ECCENTRICITY": 0.00473723, "INCLINATION": 74.0324, "RA_OF_ASC_NODE": 214.7451, "ARG_OF_PERICENTER": 321.5332, "MEAN_ANOMALY": 38.245, "EPHEMERIS_TYPE": 0, "CLASSIFICATION_TYPE": "U", "NORAD_CAT_ID": 33842, "ELEMENT_SET_NO": 999, "REV_AT_EPOCH": 88375, "BSTAR": 0.00029179963, "MEAN_MOTION_DOT": 9.57e-06, "MEAN_MOTION_DDOT": 0}, "tle": {"line1": "1 33842U 93036CK  25349.38326828  .00000957  00000+0  29180-3 0  9997", "line2": "2 33842  74.0324 214.7451 0047372 321.5332  38.2450 14.42702894883752"}}, "geometry": {"type": "Point", "coordinates": [20.377959822955884, 37.674068352801655]}}, {"type": "Feature", "properties": {"norad_id": 33844, "name": "COSMOS 2251 DEB", "group": "cosmos-2251-debris", "lat": -40.74267518489038, "lon": 32.1385845496681, "alt_km": 796.7971093925598, "timestamp": "2025-12-16T05:49:09.606125+00:00", "meta": {"OBJECT_NAME": "COSMOS 2251 DEB", "OBJECT_ID": "1993-036CM", "EPOCH": "2025-12-15T22:26:32.982144", "MEAN_MOTION": 14.3372263, "ECCENTRICITY": 0.00470489, "INCLINATION": 74.067, "RA_OF_ASC_NODE": 46.9452, "ARG_OF_PERICENTER": 67.8353, "MEAN_ANOMALY": 104.2014, "EPHEMERIS_TYPE": 0, "CLASSIFICATION_TYPE": "U", "NORAD_CAT_ID": 33844, "ELEMENT_SET_NO": 999, "REV_AT_EPOCH": 87771, "BSTAR": 0.00033516093, "MEAN_MOTION_DOT": 9.17e-06, "MEAN_MOTION_DDOT": 0}, "tle": {"line1": "1 33844U 93036CM  25349.93510396  .00000917  00000+0  33516-3 0  9999", "line2": "2 33844  74.0670  46.9452 0047048  67.8353 104.2014 14.33722630877716"}}, "geometry": {"type": "Point", "coordinates": [32.1385845496681, -40.74267518489038]}}, {"type": "Feature", "properties": {"norad_id": 33848, "name": "COSMOS 2251 DEB", "group": "cosmos-2251-debris", "lat": -73.79537382725717, "lon": -108.72705925990988, "alt_km": 774.0132344447356, "timestamp": "2025-12-16T05:49:09.606135+00:00", "meta": {"OBJECT_NAME": "COSMOS 2251 DEB", "OBJECT_ID": "1993-036CR", "EPOCH": "2025-12-15T10:59:17.058912", "MEAN_MOTION": 14.44081108, "ECCENTRICITY": 0.0041256, "INCLINATION": 74.032, "RA_OF_ASC_NODE": 352.5856, "ARG_OF_PERICENTER": 47.5844, "MEAN_ANOMALY": 102.5506, "EPHEMERIS_TYPE": 0, "CLASSIFICATION_TYPE": "U", "NORAD_CAT_ID": 33848, "ELEMENT_SET_NO": 999, "REV_AT_EPOCH": 87870, "BSTAR": 0.00079639783, "MEAN_MOTION_DOT": 2.729e-05, "MEAN_MOTION_DDOT": 0}, "tle": {"line1": "1 33848U 93036CR  25349.45783633  .00002729  00000+0  79640-3 0  9997", "line2": "2 33848  74.0320 352.5856 0041256  47.5844 102.5506 14.44081108878708"}}, "geometry": {"type": "Point", "coordinates": [-108.72705925990988, -73.79537382725717]}}, {"type": "Feature", "properties": {"norad_id": 33892, "name": "COSMOS 2251 DEB", "group": "cosmos-2251-debris", "lat": -63.579814265463654, "lon": 59.86481313018746, "alt_km": 899.0787325219208, "timestamp": "2025-12-16T05:49:09.606145+00:00", "meta": {"OBJECT_NAME": "COSMOS 2251 DEB", "OBJECT_ID": "1993-036CV", "EPOCH": "2025-12-15T17:21:46.715040", "MEAN_MOTION": 14.23350452, "ECCENTRICITY": 0.01126664, "INCLINATION": 73.803, "RA_OF_ASC_NODE": 96.6146, "ARG_OF_PERICENTER": 127.274, "MEAN_ANOMALY": 25.1596, "EPHEMERIS_TYPE": 0, "CLASSIFICATION_TYPE": "U", "NORAD_CAT_ID": 33892, "ELEMENT_SET_NO": 999, "REV_AT_EPOCH": 86997, "BSTAR": 0.00066199754, "MEAN_MOTION_DOT": 1.576e-05, "MEAN_MOTION_DDOT": 0}, "tle": {"line1": "1 33892U 93036CV  25349.72345735  .00001576  00000+0  66200-3 0  9990", "line2": "2 33892  73.8030  96.6146 0112666 127.2740  25.1596 14.23350452869971"}}, "geometry": {"type": "Point", "coordinates": [59.86481313018746, -63.579814265463654]}}, {"type": "Feature", "properties": {"norad_id": 33894, "name": "COSMOS 2251 DEB", "group": "cosmos-2251-debris", "lat": 2.841726538051653, "lon": -15.511325953844239, "alt_km": 1236.517200839945, "timestamp": "2025-12-16T05:49:09.606155+00:00", "meta": {"OBJECT_NAME": "COSMOS 2251 DEB", "OBJECT_ID": "1993-036CX", "EPOCH": "2025-12-15T09:49:00.895296", "MEAN_MOTION": 13.21312081, "ECCENTRICITY": 0.05794342, "INCLINATION": 73.7669, "RA_OF_ASC_NODE": 344.949, "ARG_OF_PERICENTER": 264.0133, "MEAN_ANOMALY": 89.4669, "EPHEMERIS_TYPE": 0, "CLASSIFICATION_TYPE": "U", "NORAD_CAT_ID": 33894, "ELEMENT_SET_NO": 999, "REV_AT_EPOCH": 80743, "BSTAR": 0.00088521583, "MEAN_MOTION_DOT": 8.58e-06, "MEAN_MOTION_DDOT": 0}, "tle": {"line1": "1 33894U 93036CX  25349.40903814  .00000858  00000+0  88522-3 0  9998", "line2": "2 33894  73.7669 344.9490 0579434 264.0133  89.4669 13.21312081807437"}}, "geometry": {"type": "Point", "coordinates": [-15.511325953844239, 2.841726538051653]}}, {"type": "Feature", "properties": {"norad_id": 33896, "name": "COSMOS 2251 DEB", "group": "cosmos-2251-debris", "lat": -51.67065994235754, "lon": 128.69872847197803, "alt_km": 749.3325640167977, "timestamp": "2025-12-16T05:49:09.606165+00:00", "meta": {"OBJECT_NAME": "COSMOS 2251 DEB", "OBJECT_ID": "1993-036CZ", "EPOCH": "2025-12-15T22:23:13.176096", "MEAN_MOTION": 14.19046999, "ECCENTRICITY": 0.01266396, "INCLINATION": 73.766, "RA_OF_ASC_NODE": 150.8859, "ARG_OF_PERICENTER": 326.0726, "MEAN_ANOMALY": 198.2889, "EPHEMERIS_TYPE": 0, "CLASSIFICATION_TYPE": "U", "NORAD_CAT_ID": 33896, "ELEMENT_SET_NO": 999, "REV_AT_EPOCH": 86785, "BSTAR": 0.00055604269, "MEAN_MOTION_DOT": 1.23e-05, "MEAN_MOTION_DDOT": 0}, "tle": {"line1": "1 33896U 93036CZ  25349.93279139  .00001230  00000+0  55604-3 0  9994", "line2": "2 33896  73.7660 150.8859 0126639 326.0726 198.2889 14.19046999867850"}}, "geometry": {"type": "Point", "coordinates": [128.69872847197803, -51.67065994235754]}}, {"type": "Feature", "properties": {"norad_id": 33899, "name": "COSMOS 2251 DEB", "group": "cosmos-2251-debris", "lat": 41.45317863438559, "lon": -115.59207033293859, "alt_km": 645.6548257472014, "timestamp": "2025-12-16T05:49:09.606175+00:00", "meta": {"OBJECT_NAME": "COSMOS 2251 DEB", "OBJECT_ID": "1993-036DC", "EPOCH": "2025-12-15T08:08:00.534048", "MEAN_MOTION": 14.61217202, "ECCENTRICITY": 0.00566131, "INCLINATION": 74.0539, "RA_OF_ASC_NODE": 80.7609, "ARG_OF_PERICENTER": 142.7153, "MEAN_ANOMALY": 282.5295, "EPHEMERIS_TYPE": 0, "CLASSIFICATION_TYPE": "U", "NORAD_CAT_ID": 33899, "ELEMENT_SET_NO": 999, "REV_AT_EPOCH": 88877, "BSTAR": 0.00059900438, "MEAN_MOTION_DOT": 2.99e-05, "MEAN_MOTION_DDOT": 0}, "tle": {"line1": "1 33899U 93036DC  25349.33889507  .00002990  00000+0  59900-3 0  9994", "line2": "2 33899  74.0539  80.7609 0056613 142.7153 282.5295 14.61217202888773"}}, "geometry": {"type": "Point", "coordinates": [-115.59207033293859, 41.45317863438559]}}, {"type": "Feature", "properties": {"norad_id": 33900, "name": "COSMOS 2251 DEB", "group": "cosmos-2251-debris", "lat": 41.982333582335464, "lon": 158.24607493258495, "alt_km": 662.0447277731682, "timestamp": "2025-12-16T05:49:09.606185+00:00", "meta": {"OBJECT_NAME": "COSMOS 2251 DEB", "OBJECT_ID": "1993-036DD", "EPOCH": "2025-12-15T18:28:51.760128", "MEAN_MOTION": 14.58358471, "ECCENTRICITY": 0.00466718, "INCLINATION": 74.0192, "RA_OF_ASC_NODE": 354.0895, "ARG_OF_PERICENTER": 145.3392, "MEAN_ANOMALY": 31.2906, "EPHEMERIS_TYPE": 0, "CLASSIFICATION_TYPE": "U", "NORAD_CAT_ID": 33900, "ELEMENT_SET_NO": 999, "REV_AT_EPOCH": 89080, "BSTAR": 0.00030078349, "MEAN_MOTION_DOT": 1.384e-05, "MEAN_MOTION_DDOT": 0}, "tle": {"line1": "1 33900U 93036DD  25349.77004352  .00001384  00000+0  30078-3 0  9993", "line2": "2 33900  74.0192 354.0895 0046671 145.3392  31.2906 14.58358471890807"}}, "geometry": {"type": "Point", "coordinates": [158.24607493258495, 41.982333582335464]}}, {"type": "Feature", "properties": {"norad_id": 33901, "name": "COSMOS 2251 DEB", "group": "cosmos-2251-debris", "lat": 52.18667783452321, "lon": -160.158937891998, "alt_km": 497.6268431386243, "timestamp": "2025-12-16T05:49:09.606195+00:00", "meta": {"OBJECT_NAME": "COSMOS 2251 DEB", "OBJECT_ID": "1993-036DE", "EPOCH": "2025-12-15T13:26:10.413600", "MEAN_MOTION": 15.16282507, "ECCENTRICITY": 0.00312108, "INCLINATION": 73.7747, "RA_OF_ASC_NODE": 43.3252, "ARG_OF_PERICENTER": 175.2657, "MEAN_ANOMALY": 184.8839, "EPHEMERIS_TYPE": 0, "CLASSIFICATION_TYPE": "U", "NORAD_CAT_ID": 33901, "ELEMENT_SET_NO": 999, "REV_AT_EPOCH": 89556, "BSTAR": 0.0017024607, "MEAN_MOTION_DOT": 0.00033492, "MEAN_MOTION_DDOT": 0}, "tle": {"line1": "1 33901U 93036DE  25349.55984275  .00033492  00000+0  17025-2 0  9992", "line2": "2 33901  73.7747  43.3252 0031210 175.2657 184.8839 15.16282507895563"}}, "geometry": {"type": "Point", "coordinates": [-160.158937891998, 52.18667783452321]}}]}